YAOGAN-36 04C           
1 54750U 22171E   26068.78871400  .00016196  00000+0  54592-3 0  9991
2 54750  34.9797  96.6578 0006685 275.3761  84.6192 15.29852307180246
STARLINK-35564          
1 67420U 26005S   26068.47993505  .00025017  00000+0  91526-3 0  9996
2 67420  42.9974 239.2264 0000741 224.6993 135.3799 15.27590548  8664
